{"type": "FeatureCollection", "features": [{"type": "Feature", "properties": {"norad_id": 28054, "name": "DMSP 5D-3 F16 (USA 172)", "group": "weather", "lat": 32.34383979691919, "lon": -7.957302729937645, "alt_km": 839.3236263954814, "timestamp": "2025-12-06T09:34:16.561229+00:00", "meta": {"OBJECT_NAME": "DMSP 5D-3 F16 (USA 172)", "OBJECT_ID": "2003-048A", "EPOCH": "2025-12-05T23:20:23.861760", "MEAN_MOTION": 14.14420496, "ECCENTRICITY": 0.0006775, "INCLINATION": 99.005, "RA_OF_ASC_NODE": 357.3762, "ARG_OF_PERICENTER": 341.6265, "MEAN_ANOMALY": 41.704, "EPHEMERIS_TYPE": 0, "CLASSIFICATION_TYPE": "U", "NORAD_CAT_ID": 28054, "ELEMENT_SET_NO": 999, "REV_AT_EPOCH": 14217, "BSTAR": 0.00016797624, "MEAN_MOTION_DOT": 2.76e-06, "MEAN_MOTION_DDOT": 0}, "tle": {"line1": "1 28054U 03048A   25339.97249840  .00000276  00000+0  16798-3 0  9997", "line2": "2 28054  99.0050 357.3762 0006775 341.6265  41.7040 14.14420496142175"}}, "geometry": {"type": "Point", "coordinates": [-7.957302729937645, 32.34383979691919]}}, {"type": "Feature", "properties": {"norad_id": 28912, "name": "METEOSAT-9 (MSG-2)", "group": "weather", "lat": -4.281528460469858, "lon": -95.6605104632706, "alt_km": 35770.50913447216, "timestamp": "2025-12-06T09:34:16.561283+00:00", "meta": {"OBJECT_NAME": "METEOSAT-9 (MSG-2)", "OBJECT_ID": "2005-049B", "EPOCH": "2025-12-05T20:45:39.436128", "MEAN_MOTION": 1.00272635, "ECCENTRICITY": 0.00040045, "INCLINATION": 8.9234, "RA_OF_ASC_NODE": 56.0387, "ARG_OF_PERICENTER": 187.5839, "MEAN_ANOMALY": 188.3106, "EPHEMERIS_TYPE": 0, "CLASSIFICATION_TYPE": "U", "NORAD_CAT_ID": 28912, "ELEMENT_SET_NO": 999, "REV_AT_EPOCH": 506, "BSTAR": 0, "MEAN_MOTION_DOT": 1.28e-06, "MEAN_MOTION_DDOT": 0}, "tle": {"line1": "1 28912U 05049B   25339.86503977  .00000128  00000+0  00000+0 0  9996", "line2": "2 28912   8.9234  56.0387 0004004 187.5839 188.3106  1.00272635  5062"}}, "geometry": {"type": "Point", "coordinates": [-95.6605104632706, -4.281528460469858]}}, {"type": "Feature", "properties": {"norad_id": 29522, "name": "DMSP 5D-3 F17 (USA 191)", "group": "weather", "lat": -37.410722953263104, "lon": -7.323628591228437, "alt_km": 847.4875007280507, "timestamp": "2025-12-06T09:34:16.561302+00:00", "meta": {"OBJECT_NAME": "DMSP 5D-3 F17 (USA 191)", "OBJECT_ID": "2006-050A", "EPOCH": "2025-12-05T23:34:01.922880", "MEAN_MOTION": 14.14915141, "ECCENTRICITY": 0.00092165, "INCLINATION": 98.7393, "RA_OF_ASC_NODE": 345.5117, "ARG_OF_PERICENTER": 245.8155, "MEAN_ANOMALY": 114.2055, "EPHEMERIS_TYPE": 0, "CLASSIFICATION_TYPE": "U", "NORAD_CAT_ID": 29522, "ELEMENT_SET_NO": 999, "REV_AT_EPOCH": 98509, "BSTAR": 0.00019354392, "MEAN_MOTION_DOT": 3.31e-06, "MEAN_MOTION_DDOT": 0}, "tle": {"line1": "1 29522U 06050A   25339.98196670  .00000331  00000+0  19354-3 0  9990", "line2": "2 29522  98.7393 345.5117 0009216 245.8155 114.2055 14.14915141985095"}}, "geometry": {"type": "Point", "coordinates": [-7.323628591228437, -37.410722953263104]}}, {"type": "Feature", "properties": {"norad_id": 32958, "name": "FENGYUN 3A", "group": "weather", "lat": -67.12398860587884, "lon": -58.74400620490736, "alt_km": 829.5984764675195, "timestamp": "2025-12-06T09:34:16.561324+00:00", "meta": {"OBJECT_NAME": "FENGYUN 3A", "OBJECT_ID": "2008-026A", "EPOCH": "2025-12-05T20:21:38.747232", "MEAN_MOTION": 14.19511232, "ECCENTRICITY": 0.00082342, "INCLINATION": 98.6685, "RA_OF_ASC_NODE": 279.5205, "ARG_OF_PERICENTER": 331.6672, "MEAN_ANOMALY": 28.4056, "EPHEMERIS_TYPE": 0, "CLASSIFICATION_TYPE": "U", "NORAD_CAT_ID": 32958, "ELEMENT_SET_NO": 999, "REV_AT_EPOCH": 90797, "BSTAR": 0.00013516435, "MEAN_MOTION_DOT": 2.42e-06, "MEAN_MOTION_DDOT": 0}, "tle": {"line1": "1 32958U 08026A   25339.84836513  .00000242  00000+0  13516-3 0  9999", "line2": "2 32958  98.6685 279.5205 0008234 331.6672  28.4056 14.19511232907972"}}, "geometry": {"type": "Point", "coordinates": [-58.74400620490736, -67.12398860587884]}}, {"type": "Feature", "properties": {"norad_id": 35491, "name": "GOES 14", "group": "weather", "lat": 0.5212372340662478, "lon": 110.634793641904, "alt_km": 35796.56495456532, "timestamp": "2025-12-06T09:34:16.561338+00:00", "meta": {"OBJECT_NAME": "GOES 14", "OBJECT_ID": "2009-033A", "EPOCH": "2025-12-05T21:44:33.027648", "MEAN_MOTION": 1.00272803, "ECCENTRICITY": 0.00041829, "INCLINATION": 1.1805, "RA_OF_ASC_NODE": 85.4889, "ARG_OF_PERICENTER": 152.7205, "MEAN_ANOMALY": 54.5599, "EPHEMERIS_TYPE": 0, "CLASSIFICATION_TYPE": "U", "NORAD_CAT_ID": 35491, "ELEMENT_SET_NO": 999, "REV_AT_EPOCH": 465, "BSTAR": 0, "MEAN_MOTION_DOT": -5.9e-07, "MEAN_MOTION_DDOT": 0}, "tle": {"line1": "1 35491U 09033A   25339.90593782 -.00000059  00000+0  00000+0 0  9995", "line2": "2 35491   1.1805  85.4889 0004182 152.7205  54.5599  1.00272803  4653"}}, "geometry": {"type": "Point", "coordinates": [110.634793641904, 0.5212372340662478]}}, {"type": "Feature", "properties": {"norad_id": 35951, "name": "DMSP 5D-3 F18 (USA 210)", "group": "weather", "lat": -12.920577275539944, "lon": 134.7755005213425, "alt_km": 851.0694290195461, "timestamp": "2025-12-06T09:34:16.561351+00:00", "meta": {"OBJECT_NAME": "DMSP 5D-3 F18 (USA 210)", "OBJECT_ID": "2009-057A", "EPOCH": "2025-12-05T22:28:45.150816", "MEAN_MOTION": 14.14762932, "ECCENTRICITY": 0.00121181, "INCLINATION": 98.8826, "RA_OF_ASC_NODE": 316.3717, "ARG_OF_PERICENTER": 80.4296, "MEAN_ANOMALY": 279.8246, "EPHEMERIS_TYPE": 0, "CLASSIFICATION_TYPE": "U", "NORAD_CAT_ID": 35951, "ELEMENT_SET_NO": 999, "REV_AT_EPOCH": 83226, "BSTAR": 0.00023964145, "MEAN_MOTION_DOT": 4.18e-06, "MEAN_MOTION_DDOT": 0}, "tle": {"line1": "1 35951U 09057A   25339.93663369  .00000418  00000+0  23964-3 0  9990", "line2": "2 35951  98.8826 316.3717 0012118  80.4296 279.8246 14.14762932832264"}}, "geometry": {"type": "Point", "coordinates": [134.7755005213425, -12.920577275539944]}}, {"type": "Feature", "properties": {"norad_id": 36411, "name": "EWS-G2 (GOES 15)", "group": "weather", "lat": -0.22079062686580955, "lon": -79.51043540805657, "alt_km": 35763.54364603651, "timestamp": "2025-12-06T09:34:16.561364+00:00", "meta": {"OBJECT_NAME": "EWS-G2 (GOES 15)", "OBJECT_ID": "2010-008A", "EPOCH": "2025-12-05T21:34:38.508384", "MEAN_MOTION": 1.00268214, "ECCENTRICITY": 0.000603, "INCLINATION": 0.7962, "RA_OF_ASC_NODE": 86.0409, "ARG_OF_PERICENTER": 171.4967, "MEAN_ANOMALY": 202.5422, "EPHEMERIS_TYPE": 0, "CLASSIFICATION_TYPE": "U", "NORAD_CAT_ID": 36411, "ELEMENT_SET_NO": 999, "REV_AT_EPOCH": 5770, "BSTAR": 0, "MEAN_MOTION_DOT": 4.7e-07, "MEAN_MOTION_DDOT": 0}, "tle": {"line1": "1 36411U 10008A   25339.89905681  .00000047  00000+0  00000+0 0  9991", "line2": "2 36411   0.7962  86.0409 0006030 171.4967 202.5422  1.00268214 57702"}}, "geometry": {"type": "Point", "coordinates": [-79.51043540805657, -0.22079062686580955]}}, {"type": "Feature", "properties": {"norad_id": 36744, "name": "COMS 1", "group": "weather", "lat": -4.32276686274793, "lon": -12.813436627848606, "alt_km": 35786.019945330896, "timestamp": "2025-12-06T09:34:16.561377+00:00", "meta": {"OBJECT_NAME": "COMS 1", "OBJECT_ID": "2010-032A", "EPOCH": "2025-12-05T20:25:51.729024", "MEAN_MOTION": 1.00271726, "ECCENTRICITY": 0.00011815, "INCLINATION": 4.3237, "RA_OF_ASC_NODE": 78.0742, "ARG_OF_PERICENTER": 187.5416, "MEAN_ANOMALY": 243.9215, "EPHEMERIS_TYPE": 0, "CLASSIFICATION_TYPE": "U", "NORAD_CAT_ID": 36744, "ELEMENT_SET_NO": 999, "REV_AT_EPOCH": 4915, "BSTAR": 0, "MEAN_MOTION_DOT": -3.37e-06, "MEAN_MOTION_DDOT": 0}, "tle": {"line1": "1 36744U 10032A   25339.85129316 -.00000337  00000+0  00000+0 0  9999", "line2": "2 36744   4.3237  78.0742 0001181 187.5416 243.9215  1.00271726 49157"}}, "geometry": {"type": "Point", "coordinates": [-12.813436627848606, -4.32276686274793]}}, {"type": "Feature", "properties": {"norad_id": 37214, "name": "FENGYUN 3B", "group": "weather", "lat": 22.608447730116907, "lon": -155.88773398416325, "alt_km": 855.1830110997562, "timestamp": "2025-12-06T09:34:16.561390+00:00", "meta": {"OBJECT_NAME": "FENGYUN 3B", "OBJECT_ID": "2010-059A", "EPOCH": "2025-12-05T23:12:39.055680", "MEAN_MOTION": 14.14786773, "ECCENTRICITY": 0.00223279, "INCLINATION": 98.9918, "RA_OF_ASC_NODE": 19.8969, "ARG_OF_PERICENTER": 16.8972, "MEAN_ANOMALY": 102.4879, "EPHEMERIS_TYPE": 0, "CLASSIFICATION_TYPE": "U", "NORAD_CAT_ID": 37214, "ELEMENT_SET_NO": 999, "REV_AT_EPOCH": 78010, "BSTAR": 0.00012158303, "MEAN_MOTION_DOT": 1.89e-06, "MEAN_MOTION_DDOT": 0}, "tle": {"line1": "1 37214U 10059A   25339.96711870  .00000189  00000+0  12158-3 0  9990", "line2": "2 37214  98.9918  19.8969 0022327  16.8972 102.4879 14.14786773780109"}}, "geometry": {"type": "Point", "coordinates": [-155.88773398416325, 22.608447730116907]}}, {"type": "Feature", "properties": {"norad_id": 37849, "name": "SUOMI NPP", "group": "weather", "lat": -68.32151880023416, "lon": 74.92907177097243, "alt_km": 834.9372331066697, "timestamp": "2025-12-06T09:34:16.561401+00:00", "meta": {"OBJECT_NAME": "SUOMI NPP", "OBJECT_ID": "2011-061A", "EPOCH": "2025-12-05T22:14:48.875712", "MEAN_MOTION": 14.19511143, "ECCENTRICITY": 0.00020039, "INCLINATION": 98.7762, "RA_OF_ASC_NODE": 277.3302, "ARG_OF_PERICENTER": 132.4085, "MEAN_ANOMALY": 227.7261, "EPHEMERIS_TYPE": 0, "CLASSIFICATION_TYPE": "U", "NORAD_CAT_ID": 37849, "ELEMENT_SET_NO": 999, "REV_AT_EPOCH": 73102, "BSTAR": 0.00011734322, "MEAN_MOTION_DOT": 2.03e-06, "MEAN_MOTION_DDOT": 0}, "tle": {"line1": "1 37849U 11061A   25339.92695458  .00000203  00000+0  11734-3 0  9993", "line2": "2 37849  98.7762 277.3302 0002003 132.4085 227.7261 14.19511143731024"}}, "geometry": {"type": "Point", "coordinates": [74.92907177097243, -68.32151880023416]}}]}